C/2019 N1 (ATLAS),e,82.4270,13.5728,193.4460,36401,0.0000001,0.99995317,0.0000,12/01.7889/2020,2000,g  7.5,4.0
# From MPEC 2020-AA5
A/2019 O2,e,93.2860,48.3236,129.6762,57.38606,0.0022672,0.83129652,357.9416,10/12.0/2020,2000,g  9.5,2.0
# From MPC118843
A/2019 O3,h,03/07.8556/2021,89.8124,300.3790,60.0463,1.001968,8.818546,2000,10.0,2.0
# From MPC117072
A/2019 O4,e,115.0856,354.9194,61.8240,32.85027,0.0052347,0.88905157,1.2824,10/12.0/2020,2000,g 15.5,2.0
# From MPEC 2020-AA5
A/2019 Q1,h,07/19.9416/2020,155.7203,42.3386,55.9522,1.000508,4.996728,2000,12.5,2.0
# From MPC117072
A/2019 Q2,e,159.0200,188.0416,176.2985,57.46431,0.0022626,0.97813022,0.0000,07/22.3317/2019,2000,g 18.0,2.0
# From MPC117072
C/2019 Q3 (PANSTARRS),h,08/21.2699/2018,65.5278,151.3241,152.6721,1.004303,7.252623,2000,8.5,4.0
# From MPC117072
P/2019 S2 (PANSTARRS),e,10.4731,93.1284,216.8287,4.735713,0.0956370,0.20680600,57.2502,10/12.0/2020,2000,g 13.5,4.0
# From MPC118096
P/2019 S3 (PANSTARRS),e,8.6933,150.1614,212.9774,3.414591,0.1562054,0.47087809,64.4856,10/12.0/2020,2000,g 18.3,4.0
# From MPEC 2020-AA5
A/2019 S4,e,92.0238,63.1644,71.3614,235.2018,0.0002732,0.98536695,0.0000,04/07.9656/2020,2000,g 14.5,2.0
# From MPC118843
A/2019 T1,e,120.8695,6.9522,91.0194,38.26326,0.0041642,0.88810069,359.6078,10/12.0/2020,2000,g 13.0,2.0
# From MPEC 2020-AA5
A/2019 T2,e,111.4753,155.6385,239.3870,2647,0.0000072,0.99900029,0.0000,04/22.2616/2021,2000,g 12.5,2.0
# From MPC119998
C/2019 T3 (ATLAS),e,121.8626,139.5196,112.2682,4999,0.0000028,0.99881054,0.0000,03/02.5880/2021,2000,g  6.8,4.0
# From MPC119998
C/2019 T4 (ATLAS),e,53.6172,199.9618,351.2149,1007,0.0000308,0.99578864,0.0000,06/09.3727/2022,2000,g  5.0,4.0
# From MPC119998
P/2019 T5 (ATLAS),e,33.4250,247.6895,189.6008,8.010012,0.0434765,0.80918931,19.0375,10/12.0/2020,2000,g 15.0,4.0
# From MPC119998
P/2019 T6 (PANSTARRS),e,18.6953,71.3061,328.9071,5.434023,0.0778076,0.62243893,26.3947,10/12.0/2020,2000,g 15.5,4.0
# From MPC118096
P/2019 U4 (PANSTARRS),e,11.6910,200.0260,180.9659,3.520474,0.1492115,0.47541042,58.1350,10/12.0/2020,2000,g 19.0,4.0
# From MPC118844
A/2019 U5,h,03/30.2881/2023,113.5252,2.6855,181.6021,1.000667,3.621142,2000,10.0,2.0
# From MPEC 2020-AA5
C/2019 U6,e,61.0005,235.7045,329.6607,429.7951,0.0001106,0.99787284,0.0000,06/18.8224/2020,2000,g 14.5,2.0
# From MPC119998
C/2019 V1 (Borisov),e,61.8625,83.2036,51.1944,2133,0.0000100,0.99854790,0.0000,07/16.5501/2020,2000,g 11.0,4.0
# From MPC119998
P/2019 V2 (Groeller),e,11.8045,189.1625,336.3536,7.514281,0.0478490,0.33239522,359.4798,10/12.0/2020,2000,g 10.0,4.0
# From MPC119998
P/2019 W1 (PANSTARRS),e,23.4602,35.4080,18.7142,4.550459,0.1015363,0.26620894,53.1247,10/12.0/2020,2000,g 12.9,4.0
# From MPC119998
P/2019 X1 (Pruyne),e,10.2446,43.7068,36.6061,6.177462,0.0641932,0.30345242,28.8990,10/12.0/2020,2000,g 10.4,4.0
# From MPC119999
C/2019 Y1 (ATLAS),e,73.2541,31.5185,57.9757,86.23601,0.0012308,0.99035698,0.0000,03/15.5947/2020,2000,g 13.7,4.0
# From MPC119999
P/2019 Y2 (Fuls),e,4.9018,81.0812,91.7468,3.529005,0.1486708,0.39614097,37.9582,10/12.0/2020,2000,g 13.2,4.0
# From MPEC 2020-L06
C/2019 Y4 (ATLAS),e,45.3829,120.5719,177.3065,533.0778,0.0000801,0.99952556,0.0000,05/31.0583/2020,2000,g 11.8,6.0
# From MPEC 2020-L06
C/2019 Y4-A (ATLAS),h,05/31.0417/2020,45.8246,120.9282,177.2491,1.001340,0.251043,2000,11.6,6.0
# From MPEC 2020-L06
C/2019 Y4-B (ATLAS),e,45.4592,120.6240,177.3824,1076,0.0000279,0.99976524,0.0000,05/31.0204/2020,2000,g 12.8,6.0
# From MPEC 2020-L06
C/2019 Y4-C (ATLAS),h,05/30.9999/2020,45.6069,120.6539,177.2824,1.002058,0.252093,2000,12.7,6.0
# From MPEC 2020-L06
C/2019 Y4-D (ATLAS),e,45.6483,121.0345,177.4213,67.21461,0.0017886,0.99625836,0.0000,05/31.1170/2020,2000,g 12.5,6.0
# From MPEC 2020-L06
C/2020 A2 (Iwamoto),e,120.7487,286.3789,68.2122,1234,0.0000227,0.99920765,0.0000,01/08.3378/2020,2000,g 13.5,4.0
# From MPEC 2020-L06
C/2020 A3 (ATLAS),h,07/29.6226/2019,146.7768,120.3772,271.1657,1.024902,5.839471,2000,8.0,4.0
# From MPEC 2020-L06
C/2020 B3 (Rankin),e,20.7048,185.8263,325.0799,1570,0.0000158,0.99786978,0.0000,10/19.8139/2019,2000,g 13.0,4.0
# From MPEC 2020-L06
C/2020 F2 (ATLAS),h,07/16.6721/2022,163.5751,250.2506,48.3728,1.002448,8.816988,2000,4.5,4.0
# From MPEC 2020-L06
C/2020 F3 (NEOWISE),e,128.9349,61.0129,37.2711,369.7524,0.0001386,0.99920289,0.0000,07/03.6831/2020,2000,g 12.5,3.2
# From MPEC 2020-L06
C/2020 F5 (MASTER),h,03/23.9755/2021,51.7008,350.6277,311.0189,1.002129,4.326814,2000,6.5,3.2
# From MPEC 2020-L06
C/2020 F6 (PANSTARRS),e,174.5815,207.8810,344.5989,378.5867,0.0001338,0.99072594,0.0000,04/11.6022/2020,2000,g 14.5,2.8
# From MPEC 2020-L06
A/2020 F7,e,93.9509,321.8861,227.9898,782.2747,0.0000450,0.99318449,0.0000,11/14.1273/2021,2000,g 12.0,2.0
# From MPEC 2020-KB7
C/2020 F8 (SWAN),e,110.7939,260.0080,68.2224,273.9048,0.0002174,0.99842871,0.0000,05/27.5666/2020,2000,g 10.0,4.0
# From MPEC 2020-L06
P/2020 G1 (Pimentel),e,18.4770,240.0933,207.6636,3.611618,0.1435990,0.85992777,29.9533,10/12.0/2020,2000,g 17.0,4.0
# From MPEC 2020-L06
C/2020 H2 (Pruyne),e,125.0437,277.6361,26.6965,185.7915,0.0003892,0.99551294,0.0000,04/27.5924/2020,2000,g 18.0,4.0
# From MPEC 2020-HM1
C/2020 H3 (Wierzchos),p,06/05.7162/2020,62.5292,30.4456,2.300288,270.6227,2000,13.5,4.0
# From MPEC 2020-L06
C/2020 H4 (Leonard),e,84.5148,307.7367,117.6126,48.18915,0.0029463,0.98075880,0.0000,08/29.5181/2020,2000,g 15.0,3.2
# From MPEC 2020-L06
C/2020 H5 (Robinson),e,70.2475,210.6015,325.0642,1085,0.0000276,0.99136476,0.0000,11/14.8877/2020,2000,g  5.0,4.0
# From MPEC 2020-L06
C/2020 H6 (ATLAS),h,09/30.9377/2021,79.9629,213.6992,20.3112,1.000880,4.704809,2000,8.0,3.2
# From MPEC 2020-KB7
C/2020 H7 (Lemmon),e,135.9235,323.5194,82.6780,1405,0.0000187,0.99685380,0.0000,06/02.9510/2020,2000,g 11.0,4.0
# From MPEC 2020-KB7
C/2020 H8 (PANSTARRS),p,06/06.7207/2020,99.7116,129.2192,4.678446,68.3225,2000,10.5,4.0
# From MPEC 2020-L06
A/2020 H9,e,137.8697,213.1196,312.8806,522.7985,0.0000825,0.99506680,0.0000,12/21.3344/2019,2000,g 18.0,2.0
# From MPEC 2020-L06
C/2020 J1 (SONEAR),e,142.2974,226.5828,341.7082,492.8985,0.0000901,0.99318295,0.0000,04/19.3188/2021,2000,g  8.5,3.2
# From MPEC 2020-L06
C/2020 K1 (PANSTARRS),h,05/08.1278/2023,89.6518,94.3684,213.9045,1.000800,3.074898,2000,5.5,4.0
# From MPEC 2020-KF5
C/2020 K2 (PANSTARRS),p,12/30.6730/2018,89.7510,34.2348,8.177098,285.5819,2000,6.5,4.0
# From MPEC 2020-KF9
C/2020 K3 (Leonard),p,06/01.0032/2020,129.0152,64.4924,1.583069,28.3546,2000,14.5,4.0
# From MPEC 2020-L06
C/2020 K4 (PANSTARRS),e,125.5622,264.0945,308.7654,23.90138,0.0084347,0.92666479,1.8747,10/12.0/2020,2000,g 16.5,4.0
# From MPEC 2020-L06
C/2020 K5 (PANSTARRS),h,06/05.5991/2021,67.1652,86.1605,249.6039,1.001442,1.535332,2000,11.0,4.0
# From MPEC 2020-L06
C/2020 K6 (Rankin),h,08/26.0425/2021,103.8044,291.5643,41.6590,1.001126,5.993909,2000,8.0,4.0
# From MPEC 2020-L09
C/2020 K7 (PANSTARRS),p,10/05.3027/2021,34.5520,60.8413,5.644571,287.4776,2000,8.0,4.0
# From MPEC 2020-SI8
C/2020 K8 (Catalina-ATLAS),h,09/14.5161/2020,31.4136,181.5193,260.0552,1.000320,0.474612,2000,15.0,3.2
# From MPEC 2020-SI8
P/2020 K9 (Lemmon-PANSTARRS),e,23.2058,166.2397,196.8499,4.202291,0.1144129,0.32190203,345.9613,10/12.0/2020,2000,g 12.5,4.0
# From MPEC 2020-K19
P/2020 M1 (PANSTARRS),e,8.6347,142.9366,67.9332,5.094087,0.0857244,0.47756931,25.3407,10/12.0/2020,2000,g 14.5,4.0
# From MPEC 2020-N01
P/2020 M2 (Lemmon),e,10.9285,8.2101,14.3996,3.826015,0.1316995,0.40488801,15.1085,10/12.0/2020,2000,g 12.0,4.0
# From MPEC 2020-SI8
C/2020 M3 (ATLAS),e,23.4728,71.2484,328.4473,26.78314,0.0071107,0.95264857,359.9031,10/12.0/2020,2000,g 14.5,4.0
# From MPEC 2020-K19
A/2020 M4,e,160.1256,348.6314,104.6315,5555,0.0000024,0.99892839,0.0000,11/23.6975/2020,2000,g 14.5,2.0
# From MPEC 2020-SI8
C/2020 M5 (ATLAS),e,93.2224,352.0979,126.3369,7287,0.0000016,0.99958771,0.0000,08/19.8956/2021,2000,g  9.0,4.0
# From MPEC 2020-SI8
C/2020 N1 (PANSTARRS),h,03/12.2338/2021,29.7037,279.9820,186.7742,1.000415,1.320689,2000,12.5,4.0
# From MPEC 2020-K19
C/2020 N2 (ATLAS),e,161.0354,257.0577,331.1630,126.8349,0.0006900,0.98585350,0.0000,08/23.6163/2020,2000,g 16.0,3.2
# From MPEC 2020-SI8
P/2020 O1 (Lemmon-PANSTARRS),e,5.2244,175.9796,104.7515,2.645884,0.2290065,0.11972422,36.9900,10/12.0/2020,2000,g 15.5,4.0
# From MPEC 2020-K19
C/2020 O2 (Amaral),e,71.8915,256.6300,9.3968,19314,0.0000004,0.99974608,0.0000,08/23.9033/2021,2000,g  8.0,3.2
# From MPEC 2020-SI8
P/2020 O3 (PANSTARRS),e,8.4417,266.8838,81.3459,4.660053,0.0979756,0.10585703,349.3365,10/12.0/2020,2000,g 12.0,4.0
# From MPEC 2020-SI8
C/2020 P1 (NEOWISE),h,10/20.1770/2020,45.0690,53.5466,8.8872,1.000626,0.342054,2000,14.0,3.2
# From MPEC 2020-SI8
C/2020 P3 (ATLAS),e,61.8909,19.5078,82.2657,20186,0.0000003,0.99966252,0.0000,04/21.1939/2021,2000,g  6.0,4.0
# From MPEC 2020-QN1
C/2020 P4-A (SOHO),h,08/08.2177/2020,26.3311,175.2067,177.4766,1.002091,0.090759,2000,5.3,6.0
# From MPEC 2020-QN1
C/2020 P4-B (SOHO),h,08/08.1269/2020,27.3012,171.4994,173.4038,1.000485,0.098304,2000,0.0,6.0
# From MPEC 2020-QN1
C/2020 P4-C (SOHO),h,08/06.8017/2020,37.4581,164.0415,116.7333,1.012860,0.086546,2000,-1.6,6.0
# From MPEC 2020-SI8
C/2020 Q1 (Borisov),e,142.9239,52.3598,9.8030,52.65036,0.0025799,0.97503414,0.0000,08/14.5694/2020,2000,g 14.0,4.0
# From MPEC 2020-SI8
C/2020 R2 (PANSTARRS),e,53.2378,195.0832,211.7297,446.6268,0.0001044,0.98949714,0.0000,02/24.2483/2022,2000,g  9.0,4.0
# From MPEC 2020-SI8
C/2020 R4 (ATLAS),e,164.4628,323.2728,46.7031,98.34434,0.0010106,0.98953947,0.0000,03/01.9317/2021,2000,g 13.5,4.0
# From MPEC 2020-SI8
P/2020 R5 (PANSTARRS),e,11.4544,272.9701,82.3261,4.978967,0.0887146,0.31449072,12.1335,10/12.0/2020,2000,g  9.5,6.0
# From MPEC 2020-SI8
C/2020 R6 (Rankin),h,09/15.2622/2019,81.2823,12.6197,268.6519,1.024203,2.943130,2000,11.0,4.0
# From MPEC 2020-SI8
C/2020 R7 (ATLAS),h,09/04.8038/2022,114.9512,268.4770,346.9805,1.027762,2.959988,2000,9.0,4.0
# From MPEC 2020-SI8
